#dP2019  6 13  0  0  0.00000000      96 __u+U IGS08 FIT  IAC
## 2057 345600.00000000   900.00000000 58647 0.0000000000000
+   97   C01C02C03C04C05C06C07C08C09C10C11C12C13C14C16E01E02
+        E03E04E05E07E08E09E11E12E13E14E15E18E19E21E24E25E26
+        E27E30E31E33E36G01G02G03G04G05G06G07G08G09G10G11G12
+        G13G14G15G16G17G18G19G20G21G22G23G24G25G26G27G28G29
+        G30G31G32J01J02J03R01R02R03R04R05R07R08R09R10R11R13
+        R14R15R16R17R18R19R20R21R22R23R24R26  0  0  0  0  0
++        13 13 13 13 13  8  8  8  8  8  7  7  9  7  8  4  4
++         4  4  4  4  4  4  4  4  4  4  4  4  4  4  4  4  4
++         4  4  4  4  4  3  3  3  0  3  3  3  3  3  3  3  3
++         3  3  3  3  3  3  3  3  3  3  3  3  3  3  3  3  3
++         3  3  3  8  8  8  5  5  5  5  5  5  5  5  5  7  6
++         5  5  6  5  5  6  6  5  5  5  6  8  0  0  0  0  0
%c M  cc GPS ccc cccc cccc cccc cccc ccccc ccccc ccccc ccccc
%c cc cc ccc ccc cccc cccc cccc cccc ccccc ccccc ccccc ccccc
%f  1.2500000  1.025000000  0.00000000000  0.000000000000000
%f  0.0000000  0.000000000  0.00000000000  0.000000000000000
%i    0    0    0    0      0      0      0      0         0
%i    0    0    0    0      0      0      0      0         0
/* INFORMATION & ANALYSIS CENTER (IAC)            FINAL DATA
/* S/V CLOCKS ARE ALIGNED TO GPS & GLONASS TIME RESPECTIVELY
/* USING THE BROADCAST EPHEMERIS                            
/* PCV:IGS14_2056 OL/AL:FES2004  NONE     YN ORB:CoN CLK:CoN
*  2019 06 13  9 15  0.00000000
PC01 -32340.319188  27039.649666    -55.488505    707.232222
PC02   4377.304930  41941.050843    907.768031     99.558560
PC03 -14850.717472  39461.414288    609.608518    526.331404
PC04 -39617.451103  14413.755788    250.061708   -203.512443
PC05  21884.081283  36041.749319    608.725957   -248.921114
PC06 -25418.439330  30089.515066 -15200.684156    903.241224
PC07 -11137.233097  35091.172710 -19988.784770    146.065354
PC08 -10730.390454  19102.071236  36104.203666    164.892286
PC09 -10494.408399  29726.002244 -27923.547294    838.442831
PC10   1042.267067  41491.872082  -5968.312125   -840.116201
PC11  13316.708175 -15225.817002 -19201.292558    279.640872
PC12  27445.252193  -1840.613990   5005.551522    760.447270
PC13   4566.480554  25998.251806  32991.738205   -774.376773
PC14  15326.437196 -20263.953883 -11426.905437    567.539557
PC16 -22178.175924  30841.980218 -18431.511612   -920.515762
PE01   3928.440124  28329.622035  -7615.859202   -625.223602
PE02  -3974.123228 -28340.101884   7556.439907     64.623109
PE03   6139.359424 -24015.129087  16199.710232   -176.833884
PE04  11635.506331  12671.124107 -24074.942390   -301.882446
PE05  20458.268741 -21358.600991  -1246.617296   -475.479838
PE07 -22747.910701   6205.626399  17901.934938   -206.366444
PE08 -11711.104403 -12412.700076  24197.125631   6340.555307
PE09  22631.065650  -6529.468975 -17923.680964   6410.211272
PE11  29049.252279   2430.033136  -5079.119178   5677.791056
PE12  22166.610156  13871.232367  13849.875057   6348.823868
PE13 -29091.058487  -2410.327553   4939.328088    388.472479
PE14  24668.280334  -7729.420124   4102.691001   -603.620462
PE15 -22531.575518 -13572.582619 -13578.198412    907.002379
PE18 -26297.899233  -2569.267238 -15815.128809   -700.175270
PE19  -7901.518090  24380.704466 -14798.687310     -5.795804
PE21  -9727.369573  17131.160375 -22094.006220   -538.828452
PE24  17591.627433   3867.399024  23478.436343   6030.932056
PE25   9756.972374 -17088.967522  22117.165321   1774.610517
PE26 -18700.195739  10208.226604  20550.823165   4458.711256
PE27 -17622.590833  -4124.804425 -23422.202708    450.183796
PE30 -15153.935821 -22819.418170 -11223.439632   4793.956764
PE31  15166.815895  22902.504273  11018.792158   -465.578070
PE33   2739.647200  16819.255427  24204.810718   -469.953514
PE36  18614.257617 -10202.984740 -20623.684232    700.301809
PG01 -22547.874700 -14369.753793   -476.234912    -39.970239
PG02   6913.798399  18446.186209  18492.705938   -236.246366
PG03 -12849.735497 -13426.350131  18969.196826    185.694567
PG04      0.000000      0.000000      0.000000 999999.999999
PG05   2690.976692  26061.504166  -3737.090234      0.556987
PG06  -7629.332824  12804.935159  22024.766096    179.210838
PG07 -23236.299105  -4422.112489 -12286.816416    -43.546985
PG08 -11061.664328 -10766.215296 -21607.779308   -147.260583
PG09 -24254.376986   6710.438181   8471.284099    392.539542
PG10  11480.267070 -17741.320030 -15902.342216     17.532092
PG11 -22376.845855 -10267.129283 -10157.783909   -585.560060
PG12  10645.843661  16068.495392  18131.834897    233.583050
PG13    837.966540  15625.976480 -21563.115942    -59.279256
PG14  13900.298464 -17408.394674  14647.122297    -76.282822
PG15  13374.519591   9963.115836 -20992.815375   -307.336090
PG16   -145.333343 -25957.238527  -4571.997396    -47.713090
PG17 -20322.705529  15364.576045   7751.146219     70.949203
PG18 -17833.318136 -17522.846915  -9648.139098     61.540444
PG19 -15993.254143  16331.928481  13278.154637   -307.166060
PG20  14554.317446  -8593.989576 -20560.774082    525.352395
PG21  20946.378175  -1312.208519 -15390.113094   -174.098660
PG22 -11385.307212 -19756.629010  13922.132615   -716.287853
PG23 -19514.510727  -4006.476921  18092.602162   -181.984684
PG24  21802.030717  15039.385977  -3836.448953    -67.391760
PG25  14839.812223   2030.134633  21730.596743   -765.278392
PG26   4664.225361 -25210.591599   6550.410940    225.789879
PG27   1641.941901 -16705.090656 -20616.180627   -156.680332
PG28 -12448.916469  17071.645331 -15550.530176    767.478018
PG29  23555.647818  -2063.015666  12071.737656    177.608140
PG30 -17599.742711   5088.329469 -19272.746388   -123.002138
PG31   6794.737122 -13691.609323  21695.823945     31.426735
PG32  18824.854229 -16868.953644   8013.804045    -45.618697
PJ01 -30152.630668  26658.854894  17541.391537   -288.729410
PJ02 -19191.356170  21617.278482 -26236.289262     -0.290728
PJ03 -29803.346922  28973.167577  12622.268652      0.849155
PR01  15575.549886 -12358.917966 -15981.237268     45.255429
PR02  11080.385810 -22686.396883   3489.399804    373.282610
PR03   -169.595587 -17587.962257  18501.510115     -3.352541
PR04 -11490.722239  -1720.111378  22731.993286    309.937563
PR05 -15740.227753  14201.138813  14216.008875     29.957076
PR07    414.789824  17314.780254 -18700.797514    -21.690826
PR08  11089.567222   2488.058090 -22777.142657     17.273122
PR09   1962.167760  19298.697764 -16511.965872     74.806851
PR10  11326.881394  22619.780809  -2922.500937     52.043752
PR11  15995.019410  13329.055922  14713.551395    -69.285179
PR13   -989.657122 -18096.057588  17936.792488    -24.833040
PR14 -11629.218221 -22550.366766   2734.886673     39.902330
PR15 -15904.801667 -14165.962725 -14019.722243    102.508391
PR16 -11018.044022   2988.854836 -22825.097596      8.600525
PR17  -8862.151833  -9947.427548 -21740.946703    235.378387
PR18 -22866.133099  -4684.525094 -10350.545773     -3.432661
PR19 -24530.591389   2424.141249   6559.049095    -36.037840
PR20 -10929.108470   9224.726946  21137.276890   -381.103928
PR21   9603.124530   9762.136805  21521.940121    -53.707487
PR22  23935.783648   3620.321020   7835.124377    -23.713911
PR23  22109.705082  -5177.250217 -11627.449804    234.096990
PR24   8801.982956  -9815.046663 -21862.076199   -181.488137
PR26 -13439.613675   8886.394708  19774.850959     -7.003089
EOF
